SENTINEL-6              
1 46984U 20086A   24186.95489642 -.00000055  00000+0  25403-4 0  9993
2 46984  66.0392 174.3663 0007954 270.1822  89.8282 12.80929685169100
